HERMES-2                
1 63243U 25052AK  26068.92847372  .00009456  00000+0  34839-3 0  9999
2 63243  97.4004 324.4926 0006340  99.4160 260.7796 15.28021069 54859
STARLINK-36517          
1 67454U 26008K   26068.45583027  .00024458  00000+0  89482-3 0  9994
2 67454  42.9956 206.7869 0002153 179.3170 180.7685 15.27599223  9537
